FLOCK 4G-14             
1 62667U 25009BL  26068.75869712  .00011310  00000+0  42676-3 0  9993
2 62667  97.4064 151.1836 0003006 318.3639  41.7371 15.27197201 63711
STARLINK-32961          
1 63122U 25039U   26068.21704064  .00023002  00000+0  84262-3 0  9990
2 63122  43.0039  15.5279 0001489 260.3089  99.7595 15.27586627 57997
